[{"id":"07530","name":"OSCAR 7 (AO-7)","tle1":"1 07530U 74089B   26176.27122769 -.00000034  00000+0  78645-4 0  9992","tle2":"2 07530 101.9899 189.6021 0012639 115.1712 256.0878 12.53698176361532"},{"id":"14129","name":"PHASE 3B (AO-10)","tle1":"1 14129U 83058B   26174.68191131 -.00000085  00000+0  00000+0 0  9993","tle2":"2 14129  25.9176 218.4895 6008564 117.4551 314.9460  2.05872578295624"},{"id":"14781","name":"UOSAT 2 (UO-11)","tle1":"1 14781U 84021B   26175.87304522  .00001162  00000+0  12372-3 0  9995","tle2":"2 14781  97.8060 141.3619 0008292 148.6773 211.4941 14.90800616258276"},{"id":"20442","name":"LUSAT (LO-19)","tle1":"1 20442U 90005G   26175.99605584  .00000102  00000+0  53001-4 0  9998","tle2":"2 20442  98.8847 198.0168 0011576 177.8494 182.2741 14.34125258903519"},{"id":"22825","name":"EYESAT A (AO-27)","tle1":"1 22825U 93061C   26176.18096079  .00000079  00000+0  46862-4 0  9995","tle2":"2 22825  98.6877 243.5916 0009517  79.1910 281.0343 14.30944177708146"},{"id":"22826","name":"ITAMSAT (IO-26)","tle1":"1 22826U 93061D   26176.15798819  .00000084  00000+0  48577-4 0  9995","tle2":"2 22826  98.6825 243.4869 0009920  64.2862 295.9344 14.31371311708459"},{"id":"23439","name":"RADIO ROSTO (RS15)","tle1":"1 23439U 94085A   26176.00931005 -.00000046  00000+0 -10565-3 0  9998","tle2":"2 23439  64.8179 290.5659 0156204   2.4278 357.7371 11.27583413296785"},{"id":"24278","name":"JAS-2 (FO-29)","tle1":"1 24278U 96046B   26176.14811663 -.00000016  00000+0  17093-4 0  9991","tle2":"2 24278  98.5234  23.9293 0350914  75.8351 288.1508 13.53274732474245"},{"id":"25397","name":"TECHSAT 1B (GO-32)","tle1":"1 25397U 98043D   26175.72087360  .00000044  00000+0  39041-4 0  9992","tle2":"2 25397  99.0070 168.6697 0001426 148.6020 211.5244 14.24429629452407"},{"id":"25544","name":"ISS (ZARYA)","tle1":"1 25544U 98067A   26176.18758125  .00009470  00000+0  17725-3 0  9993","tle2":"2 25544  51.6326 260.4913 0004408 228.8642 131.1966 15.49415960572991"},{"id":"26931","name":"PCSAT (NO-44)","tle1":"1 26931U 01043C   26176.26137265  .00000085  00000+0  62535-4 0  9990","tle2":"2 26931  67.0494 223.3886 0006049 265.0171  95.0240 14.31958489291606"},{"id":"27607","name":"SAUDISAT 1C (SO-50)","tle1":"1 27607U 02058C   26176.17970424  .00000928  00000+0  12668-3 0  9997","tle2":"2 27607  64.5519 104.2569 0075079 260.9817  98.2786 14.83062534265641"},{"id":"27844","name":"CUTE-1 (CO-55)","tle1":"1 27844U 03031E   26176.25618352  .00000279  00000+0  13960-3 0  9995","tle2":"2 27844  98.6736 184.7136 0010021 155.2513 204.9149 14.24340250192828"},{"id":"27848","name":"CUBESAT XI-IV (CO-57)","tle1":"1 27848U 03031J   26175.96755848  .00000227  00000+0  11865-3 0  9993","tle2":"2 27848  98.6767 184.1351 0009536 174.0960 186.0333 14.23624582192482"},{"id":"27939","name":"MOZHAETS 4 (RS22)","tle1":"1 27939U 03042A   26176.30506214  .00000883  00000+0  14418-3 0  9991","tle2":"2 27939  98.3476   0.8932 0010010 240.4770 244.0899 14.73479266216742"},{"id":"28895","name":"CUBESAT XI-V","tle1":"1 28895U 05043F   26175.26515780  .00001196  00000+0  19578-3 0  9998","tle2":"2 28895  98.2991 331.0356 0014129 178.0583 182.0681 14.72647893102798"},{"id":"32785","name":"CUTE-1.7+APD II (CO-65)","tle1":"1 32785U 08021C   26176.20348305  .00005470  00000+0  34493-3 0  9994","tle2":"2 32785  97.8276 157.7888 0008994  14.9930 345.1563 15.09522659986404"},{"id":"32791","name":"SEEDS II (CO-66)","tle1":"1 32791U 08021J   26175.96907043  .00019623  00000+0  61750-3 0  9994","tle2":"2 32791  97.7519 174.2392 0000309 241.1908 118.9302 15.32990296988484"},{"id":"32953","name":"YUBILEINY (RS30)","tle1":"1 32953U 08025A   26176.22674582  .00000089  00000+0  57163-3 0  9996","tle2":"2 32953  82.5048 350.4384 0018605 295.4399  64.4756 12.43180028820695"},{"id":"33499","name":"KKS-1 (KISEKI)","tle1":"1 33499U 09002H   26176.28502834  .00001254  00000+0  16061-3 0  9991","tle2":"2 33499  98.1187  98.8556 0006359 263.8182  96.2306 14.83142781937394"},{"id":"35932","name":"SWISSCUBE","tle1":"1 35932U 09051B   26176.24188242  .00000935  00000+0  19415-3 0  9999","tle2":"2 35932  98.4030  84.2704 0006545 176.2173 183.9079 14.62495581890335"},{"id":"35933","name":"BEESAT-1","tle1":"1 35933U 09051C   26176.25551236  .00000777  00000+0  16579-3 0  9990","tle2":"2 35933  98.3958  83.9028 0004745 188.0709 172.0416 14.61732314890369"},{"id":"35935","name":"ITUPSAT1","tle1":"1 35935U 09051E   26175.29429429  .00000610  00000+0  13593-3 0  9992","tle2":"2 35935  98.4043  82.1112 0006604 208.5040 151.5799 14.60449650889770"},{"id":"36122","name":"XIWANG-1 (HOPE-1)","tle1":"1 36122U 09072B   26176.22378881  .00000416  00000+0  12066-2 0  9990","tle2":"2 36122 100.4024 129.9275 0007021 211.7007 148.3684 13.16441267794065"},{"id":"37224","name":"O/OREOS (USA 219)","tle1":"1 37224U 10062C   26176.09849408  .00002094  00000+0  20305-3 0  9998","tle2":"2 37224  71.9701  62.4189 0012841  46.2089 314.0141 14.93774803117829"},{"id":"37839","name":"JUGNU","tle1":"1 37839U 11058B   26175.55974894  .00000392  00000+0  64890-4 0  9991","tle2":"2 37839  19.9602 263.6394 0018528 157.2272 231.8705 14.13778452760070"},{"id":"37841","name":"SRMSAT","tle1":"1 37841U 11058D   26176.22718632  .00000368  00000+0  55867-4 0  9992","tle2":"2 37841  19.9735  10.8048 0011711 292.6715 223.4173 14.11577108758954"},{"id":"39090","name":"STRAND-1","tle1":"1 39090U 13009E   26175.92326149  .00000262  00000+0  10254-3 0  9995","tle2":"2 39090  98.3924 355.9672 0008147 200.1736 159.9130 14.37167384698177"},{"id":"39417","name":"ZACUBE-1 (TSHEPISOSAT)","tle1":"1 39417U 13066B   26176.13923660  .00003058  00000+0  23876-3 0  9996","tle2":"2 39417  97.8051 138.5170 0041881 220.5392 139.2711 15.01227074681925"},{"id":"39430","name":"GOMX-1","tle1":"1 39430U 13066Q   26176.28897743  .00001508  00000+0  23114-3 0  9992","tle2":"2 39430  97.6488  16.2404 0129906  51.8356 309.4471 14.69484177671109"}]